NORAD_CAT_ID,OBJECT_NAME,OBJECT_TYPE,EPOCH,MEAN_MOTION,ECCENTRICITY,INCLINATION,RA_OF_ASC_NODE,ARG_OF_PERICENTER,MEAN_ANOMALY,BSTAR,MEAN_MOTION_DOT,MEAN_MOTION_DDOT,TLE_LINE0,TLE_LINE1,TLE_LINE2,SEMIMAJOR_AXIS,PERIOD,APOGEE,PERIGEE,DECAYED
51971.0,STARLINK-3669,PAYLOAD,2022-11-18 13:10:48,15.08836499,0.0002009,53.2193,48.1853,46.2985,313.8173,-2.5028e-05,-6.86e-06,0.0,0 STARLINK-3669,1 51971U 22025R   22322.54917538 -.00000686  00000-0 -25028-4 0  9990,2 51971  53.2193  48.1853 0002009  46.2985 313.8173 15.08836499 38967,6917.891,95.438,541.146,538.366,0.0
51971.0,STARLINK-3669,PAYLOAD,2022-11-18 16:21:35,15.08835384,0.000135,53.2201,47.5883,53.4885,306.6232,0.00010343,1.358e-05,0.0,0 STARLINK-3669,1 51971U 22025R   22322.68165579  .00001358  00000-0  10343-3 0  9993,2 51971  53.2201  47.5883 0001350  53.4885 306.6232 15.08835384 38980,6917.894,95.438,540.693,538.826,0.0
51971.0,STARLINK-3669,PAYLOAD,2022-11-19 05:04:39,15.0884244,0.000192,53.2217,45.2146,28.2843,331.8253,7.0329e-05,8.31e-06,0.0,0 STARLINK-3669,1 51971U 22025R   22323.21157322  .00000831  00000-0  70329-4 0  9996,2 51971  53.2217  45.2146 0001920  28.2843 331.8253 15.08842440 40179,6917.873000000001,95.437,541.066,538.41,0.0
51971.0,STARLINK-3669,PAYLOAD,2022-11-19 08:15:26,15.08842758,0.0002031,53.2204,44.6191,32.9925,327.1194,5.4762e-05,5.84e-06,0.0,0 STARLINK-3669,1 51971U 22025R   22323.34405315  .00000584  00000-0  54762-4 0  9996,2 51971  53.2204  44.6191 0002031  32.9925 327.1194 15.08842758 39087,6917.871999999999,95.437,541.1419999999998,538.332,0.0
51971.0,STARLINK-3669,PAYLOAD,2022-11-19 14:36:58,15.08842438,0.0002098,53.2205,43.4296,33.5638,326.5487,0.00017782,2.543e-05,0.0,0 STARLINK-3669,1 51971U 22025R   22323.60901048  .00002543  00000-0  17782-3 0  9996,2 51971  53.2205  43.4296 0002098  33.5638 326.5487 15.08842438 39120,6917.873000000001,95.437,541.189,538.2869999999998,0.0
51971.0,STARLINK-3669,PAYLOAD,2022-11-20 00:09:17,15.08841244,0.0002229,53.2201,41.6456,34.9062,325.2076,0.00012628,1.722e-05,0.0,0 STARLINK-3669,1 51971U 22025R   22324.00645023  .00001722  00000-0  12628-3 0  9991,2 51971  53.2201  41.6456 0002229  34.9062 325.2076 15.08841244 39186,6917.877,95.437,541.284,538.2,0.0
51971.0,STARLINK-3669,PAYLOAD,2022-11-20 11:16:59,15.088328400000002,0.0001576999999999,53.2225,39.5559,51.6975,308.4159,2.9566e-05,1.82e-06,0.0,0 STARLINK-3669,1 51971U 22025R   22324.47013844  .00000182  00000-0  29566-4 0  9991,2 51971  53.2225  39.5559 0001577  51.6975 308.4159 15.08832840 39251,6917.901999999999,95.438,540.8580000000002,538.6759999999998,0.0
51971.0,STARLINK-3669,PAYLOAD,2022-11-21 00:00:05,15.08830663,0.0002219,53.2202,37.1851,36.1193,323.9949,1.3051e-06,-2.68e-06,0.0,0 STARLINK-3669,1 51971U 22025R   22325.00006552 -.00000268  00000-0  13051-5 0  9998,2 51971  53.2202  37.1851 0002219  36.1193 323.9949 15.08830663 40442,6917.909000000002,95.438,541.309,538.239,0.0
51971.0,STARLINK-3669,PAYLOAD,2022-11-21 09:32:23,15.08840301,0.0002312,53.2201,35.4013,36.467,323.6479,8.1926e-05,1.016e-05,0.0,0 STARLINK-3669,1 51971U 22025R   22325.39749929  .00001016  00000-0  81926-4 0  9998,2 51971  53.2201  35.4013 0002312  36.4670 323.6479 15.08840301 40501,6917.879,95.438,541.344,538.145,0.0
51971.0,STARLINK-3669,PAYLOAD,2022-11-21 11:07:47,15.08841003,0.0002319,53.2201,35.104,36.5539,323.5611,8.664799999999999e-05,1.091e-05,0.0,0 STARLINK-3669,1 51971U 22025R   22325.46373870  .00001091  00000-0  86648-4 0  9993,2 51971  53.2201  35.1040 0002319  36.5539 323.5611 15.08841003 39404,6917.877,95.437,541.347,538.138,0.0
51971.0,STARLINK-3669,PAYLOAD,2022-11-22 10:58:34,15.0883762,0.0002268,53.2203,30.6435,37.3241,322.7909,0.00019497,2.816e-05,0.0,0 STARLINK-3669,1 51971U 22025R   22326.45734067  .00002816  00000-0  19497-3 0  9995,2 51971  53.2203  30.6435 0002268  37.3241 322.7909 15.08837620 40667,6917.888000000001,95.438,541.322,538.184,0.0
51971.0,STARLINK-3669,PAYLOAD,2022-11-23 10:49:21,15.08834274,0.0002339,53.2196,26.1827,36.0563,324.0587,1.4693e-05,-5.5e-07,0.0,0 STARLINK-3669,1 51971U 22025R   22327.45094793 -.00000055  00000-0  14693-4 0  9999,2 51971  53.2196  26.1827 0002339  36.0563 324.0587 15.08834274 39707,6917.898,95.438,541.381,538.145,0.0
51971.0,STARLINK-3669,PAYLOAD,2022-11-23 14:00:07,15.08852539,0.0002419,53.22,25.5885,31.8081,328.3057,-0.00029313,-4.952e-05,0.0,0 STARLINK-3669,1 51971U 22025R   22327.58342513 -.00004952  00000-0 -29313-3 0  9994,2 51971  53.2200  25.5885 0002419  31.8081 328.3057 15.08852539 40836,6917.842,95.437,541.38,538.034,0.0
51971.0,STARLINK-3669,PAYLOAD,2022-11-24 10:40:08,15.08849519,0.0002472,53.2203,21.7235,32.2674,327.8469,4.7209e-05,4.63e-06,0.0,0 STARLINK-3669,1 51971U 22025R   22328.44453728  .00000463  00000-0  47209-4 0  9997,2 51971  53.2203  21.7235 0002472  32.2674 327.8469 15.08849519 39853,6917.851,95.437,541.4259999999998,538.006,0.0
51971.0,STARLINK-3669,PAYLOAD,2022-11-25 02:33:59,15.08836995,0.0002447,53.2205,18.7504,33.933,326.1818,8.3737e-05,1.044e-05,0.0,0 STARLINK-3669,1 51971U 22025R   22329.10694297  .00001044  00000-0  83737-4 0  9991,2 51971  53.2205  18.7504 0002447  33.9330 326.1818 15.08836995 41069,6917.89,95.438,541.447,538.062,0.0
51971.0,STARLINK-3669,PAYLOAD,2022-11-25 10:30:55,15.08843276,0.0002462,53.2204,17.2635,34.4137,325.7014,0.00014284,1.986e-05,0.0,0 STARLINK-3669,1 51971U 22025R   22329.43813907  .00001986  00000-0  14284-3 0  9993,2 51971  53.2204  17.2635 0002462  34.4137 325.7014 15.08843276 40001,6917.87,95.437,541.439,538.0319999999998,0.0
51971.0,STARLINK-3669,PAYLOAD,2022-11-26 11:57:04,15.08851627,0.0002598,53.2197,12.5064,34.5552,325.5609,0.00013587,1.875e-05,0.0,0 STARLINK-3669,1 51971U 22025R   22330.49797423  .00001875  00000-0  13587-3 0  9997,2 51971  53.2197  12.5064 0002598  34.5552 325.5609 15.08851627 41275,6917.845,95.437,541.507,537.913,0.0
51971.0,STARLINK-3669,PAYLOAD,2022-11-27 02:15:33,15.08842533,0.0002561,53.2192,9.8289,33.5816,326.5338,-1.2655e-05,-4.9000000000000005e-06,0.0,0 STARLINK-3669,1 51971U 22025R   22331.09413621 -.00000490  00000-0 -12655-4 0  9999,2 51971  53.2192   9.8289 0002561  33.5816 326.5338 15.08842533 41366,6917.873000000001,95.437,541.509,537.966,0.0
51971.0,STARLINK-3669,PAYLOAD,2022-11-27 11:47:52,15.08840011,0.0002634999999999,53.2192,8.0447,33.2479,326.8679,-5.3325e-05,-1.137e-05,0.0,0 STARLINK-3669,1 51971U 22025R   22331.49157665 -.00001137  00000-0 -53325-4 0  9994,2 51971  53.2192   8.0447 0002635  33.2479 326.8679 15.08840011 40311,6917.88,95.438,541.568,537.922,0.0
51971.0,STARLINK-3669,PAYLOAD,2022-11-27 19:44:48,15.08832734,0.0002682,53.2195,6.5586,32.422,327.6937,-0.00015177,-2.703e-05,0.0,0 STARLINK-3669,1 51971U 22025R   22331.82278158 -.00002703  00000-0 -15177-3 0  9994,2 51971  53.2195   6.5586 0002682  32.4220 327.6937 15.08832734 41475,6917.903,95.438,541.623,537.9119999999998,0.0
51971.0,STARLINK-3669,PAYLOAD,2022-11-28 08:27:53,15.08841831,0.0002537,53.2192,4.1797,33.4957,326.6195,9.3834e-06,-1.39e-06,0.0,0 STARLINK-3669,1 51971U 22025R   22332.35269836 -.00000139  00000-0  93834-5 0  9994,2 51971  53.2192   4.1797 0002537  33.4957 326.6195 15.08841831 41559,6917.875,95.437,541.495,537.985,0.0
51971.0,STARLINK-3669,PAYLOAD,2022-11-29 08:18:40,15.08840808,0.0002728,53.2189,359.7195,31.9018,328.2139,0.00014649,2.044e-05,0.0,0 STARLINK-3669,1 51971U 22025R   22333.34630080  .00002044  00000-0  14649-3 0  9998,2 51971  53.2189 359.7195 0002728  31.9018 328.2139 15.08840808 40591,6917.878000000002,95.438,541.63,537.856,0.0
51971.0,STARLINK-3669,PAYLOAD,2022-11-30 03:23:18,15.0883859,0.0002659,53.2189,356.1517,30.8552,329.2596,0.00013613,1.879e-05,0.0,0 STARLINK-3669,1 51971U 22025R   22334.14118247  .00001879  00000-0  13613-3 0  9998,2 51971  53.2189 356.1517 0002659  30.8552 329.2596 15.08838590 41824,6917.885,95.438,541.589,537.91,0.0
51971.0,STARLINK-3669,PAYLOAD,2022-11-30 04:58:41,15.08839334,0.0002563,53.2197,355.8539,31.6221,328.4925,0.00011159,1.488e-05,0.0,0 STARLINK-3669,1 51971U 22025R   22334.20742049  .00001488  00000-0  11159-3 0  9997,2 51971  53.2197 355.8539 0002563  31.6221 328.4925 15.08839334 40721,6917.882,95.438,541.52,537.974,0.0
51971.0,STARLINK-3669,PAYLOAD,2022-11-30 08:09:27,15.08842348,0.0002662,53.2198,355.2598,30.1385,329.976,0.00010338,1.357e-05,0.0,0 STARLINK-3669,1 51971U 22025R   22334.33989856  .00001357  00000-0  10338-3 0  9993,2 51971  53.2198 355.2598 0002662  30.1385 329.9760 15.08842348 40740,6917.873000000001,95.437,541.58,537.8969999999998,0.0
51971.0,STARLINK-3669,PAYLOAD,2022-12-01 08:00:14,15.08835538,0.0002539,53.2198,350.7986,31.8216,328.2929,3.2178e-05,2.24e-06,0.0,0 STARLINK-3669,1 51971U 22025R   22335.33350338  .00000224  00000-0  32178-4 0  9990,2 51971  53.2198 350.7986 0002539  31.8216 328.2929 15.08835538 40893,6917.894,95.438,541.515,538.003,0.0
51971.0,STARLINK-3669,PAYLOAD,2022-12-01 20:43:19,15.08836103,0.000255,53.2199,348.4202,30.2087,329.9052,4.562e-05,4.38e-06,0.0,0 STARLINK-3669,1 51971U 22025R   22335.86342336  .00000438  00000-0  45620-4 0  9990,2 51971  53.2199 348.4202 0002550  30.2087 329.9052 15.08836103 42088,6917.892,95.438,541.521,537.993,0.0
51971.0,STARLINK-3669,PAYLOAD,2022-12-02 01:29:28,15.08840708,0.0002528,53.22,347.528,30.1367,329.977,8.398700000000001e-05,1.049e-05,0.0,0 STARLINK-3669,1 51971U 22025R   22336.06213994  .00001049  00000-0  83987-4 0  9997,2 51971  53.2200 347.5280 0002528  30.1367 329.9770 15.08840708 41006,6917.878000000002,95.438,541.492,537.994,0.0
51971.0,STARLINK-3669,PAYLOAD,2022-12-02 17:23:20,15.08841366,0.0002582,53.22,344.5546,30.9606,329.1538,9.2727e-05,1.188e-05,0.0,0 STARLINK-3669,1 51971U 22025R   22336.72453984  .00001188  00000-0  92727-4 0  9991,2 51971  53.2200 344.5546 0002582  30.9606 329.1538 15.08841366 41108,6917.876,95.437,541.5269999999998,537.955,0.0
